SZ-17 MODULE            
1 59624U 23164C   24300.54833702  .00163045  00000+0  60521-3 0  9998
2 59624  41.4726 348.5490 0010925 102.5359 257.6712 15.86709468 28236
PROGRESS-MS 27          
1 59913U 24103A   24300.51043961  .00030765  00000+0  53567-3 0  9994
2 59913  51.6423  24.9127 0009237 111.5409   6.0157 15.50446956478459
CYGNUS NG-21            
1 60378U 24139A   24300.51043961  .00030765  00000+0  53567-3 0  9990
2 60378  51.6423  24.9127 0009237 111.5409   6.0157 15.50446956478456
PROGRESS-MS 28          
1 60450U 24145A   24300.51043961  .00030765  00000+0  53567-3 0  9998
2 60450  51.6423  24.9127 0009237 111.5409   6.0157 15.50446956478457
BINAR-4                 
1 60952U 98067WS  24300.52180903  .00904745  00000+0  33433-2 0  9995
2 60952  51.6257  19.2042 0010471  14.7457 345.3851 15.85304053  9090
COSMOGIRLSAT            
1 60953U 98067WT  24300.51134617  .00230003  00000+0  20154-2 0  9991
2 60953  51.6329  21.4133 0004420  71.3785 288.7691 15.67591739  9065
SAKURA                  
1 60954U 98067WU  24300.47359531  .00276607  00000+0  21629-2 0  9999
2 60954  51.6321  21.1583 0004781  52.8071 307.3362 15.70213618  9060
BINAR-2                 
1 60956U 98067WW  24300.51541014  .00638755  00000+0  31960-2 0  9990
2 60956  51.6199  19.8955 0008880  22.0845 338.0537 15.79468188  9073
BINAR-3                 
1 60957U 98067WX  24300.50483421  .00851093  00000+0  32643-2 0  9998
2 60957  51.6191  19.0784 0012084  17.6812 342.4609 15.84633080 11076
1998-067WY              
1 60958U 98067WY  24300.46661101  .00201320  00000+0  18732-2 0  9992
2 60958  51.6353  21.8704 0004398  82.7085 277.4411 15.66200793  9047
SOYUZ-MS 26             
1 61043U 24162A   24300.51043961  .00030765  00000+0  53567-3 0  9996
2 61043  51.6423  24.9127 0009237 111.5409   6.0157 15.50446956478456
CREW DRAGON 9           
1 61447U 24178A   24300.51043961  .00030765  00000+0  53567-3 0  9991
2 61447  51.6423  24.9127 0009237 111.5409   6.0157 15.50446956478454
CYSAT-1                 
1 61501U 98067WZ  24300.51983629  .00150680  00000+0  21314-2 0  9997
2 61501  51.6382  24.4728 0007713 103.4473 256.7378 15.55465056  2852
DORA                    
1 61502U 98067XA  24300.69820263  .00268817  00000+0  33777-2 0  9999
2 61502  51.6379  23.4132 0007792  67.5266 292.6551 15.58214266  2876
